[{"OBJECT_NAME":"NUSAT-44 (MARIA MITCHELL)","OBJECT_ID":"2024-043AA","EPOCH":"2026-03-09T22:12:18.524160","MEAN_MOTION":15.29764305,"ECCENTRICITY":0.0007331,"INCLINATION":97.5299,"RA_OF_ASC_NODE":207.7691,"ARG_OF_PERICENTER":214.9017,"MEAN_ANOMALY":145.1743,"EPHEMERIS_TYPE":0,"CLASSIFICATION_TYPE":"U","NORAD_CAT_ID":59122,"ELEMENT_SET_NO":999,"REV_AT_EPOCH":11209,"BSTAR":0.00061063193,"MEAN_MOTION_DOT":0.00017562,"MEAN_MOTION_DDOT":0},{"OBJECT_NAME":"STARLINK-31933","OBJECT_ID":"2024-098S","EPOCH":"2026-03-09T00:21:06.716448","MEAN_MOTION":15.27564911,"ECCENTRICITY":8.855e-5,"INCLINATION":42.9985,"RA_OF_ASC_NODE":281.7463,"ARG_OF_PERICENTER":283.3365,"MEAN_ANOMALY":76.7387,"EPHEMERIS_TYPE":0,"CLASSIFICATION_TYPE":"U","NORAD_CAT_ID":59874,"ELEMENT_SET_NO":999,"REV_AT_EPOCH":10174,"BSTAR":0.00011715851,"MEAN_MOTION_DOT":2.962e-5,"MEAN_MOTION_DDOT":0}]
